STARLINK-36670          
1 67828U 26033H   26074.25001157 -.01947914  00000+0 -22478-1 0  9995
2 67828  42.9995 237.7110 0001652 264.9735 349.2518 15.64285341  5558
STARLINK-36144          
1 67829U 26033J   26074.25001157 -.01946498  00000+0 -23486-1 0  9992
2 67829  42.9998 237.7442 0001531 261.1208 339.7512 15.63166875  5557
STARLINK-36611          
1 67830U 26033K   26074.25001157 -.01945403  00000+0 -21519-1 0  9994
2 67830  42.9998 237.6506 0001775 263.5613  14.7024 15.65329791  5553
STARLINK-36661          
1 67831U 26033L   26074.25001157 -.01900571  00000+0 -26094-1 0  9995
2 67831  42.9994 237.8704 0001391 271.2811 278.7633 15.59790379  5557
STARLINK-36662          
1 67832U 26033M   26074.25001157 -.00645584  00000+0 -29120-2 0  9999
2 67832  42.9985 236.3249 0002175 264.1194 180.8579 15.84618172  5552
STARLINK-36659          
1 67833U 26033N   26071.84283128 -.00484356  00000+0 -25046-2 0  9993
2 67833  42.9970 252.0859 0001816 307.9497  52.1210 15.81357226  5125
STARLINK-36655          
1 67834U 26033P   26074.25001157 -.01944713  00000+0 -21501-1 0  9992
2 67834  42.9995 237.6187 0001772 261.8968  29.3932 15.65340859  5558
STARLINK-36657          
1 67835U 26033Q   26074.25001157 -.01945111  00000+0 -18160-1 0  9993
2 67835  42.9994 237.4782 0001972 267.9160  79.3620 15.69442150  5550
STARLINK-36650          
1 67836U 26033R   26074.25001157 -.01924002  00000+0 -25246-1 0  9993
2 67836  42.9992 237.7717 0001537 266.5657 322.8056 15.60996628  5557
STARLINK-36649          
1 67837U 26033S   26074.25001157 -.01946280  00000+0 -21892-1 0  9999
2 67837  42.9997 237.6010 0001761 265.7194  32.1931 15.64917304  5555
STARLINK-36654          
1 67838U 26033T   26074.25001157 -.01945694  00000+0 -23715-1 0  9994
2 67838  42.9995 237.6680 0001684 263.9168   6.8701 15.62908879  5550
STARLINK-36652          
1 67839U 26033U   26074.25001157 -.01906450  00000+0 -24807-1 0  9995
2 67839  42.9995 237.7313 0001349 261.5312 344.1863 15.61182434  5555
STARLINK-36651          
1 67840U 26033V   26074.25001157 -.01939730  00000+0 -23804-1 0  9990
2 67840  42.9994 237.6537 0001728 265.8526  10.5297 15.62725893  5556
STARLINK-36656          
1 67841U 26033W   26074.25001157 -.01946462  00000+0 -22872-1 0  9995
2 67841  42.9994 237.5993 0001735 264.5482  33.8758 15.63828943  5558
STARLINK-36653          
1 67842U 26033X   26074.25001157 -.01926715  00000+0 -23551-1 0  9990
2 67842  42.9996 237.6285 0001625 263.5572  22.9272 15.62804764  5557
STARLINK-36589          
1 67843U 26033Y   26074.25001157 -.01942821  00000+0 -22789-1 0  9999
2 67843  42.9992 237.5763 0001710 265.2633  42.3274 15.63866968  5559
