[{"OBJECT_NAME":"STARLINK-36670","OBJECT_ID":"2026-033H","EPOCH":"2026-03-15T06:00:00.999648","MEAN_MOTION":15.64285341,"ECCENTRICITY":0.00016523,"INCLINATION":42.9995,"RA_OF_ASC_NODE":237.711,"ARG_OF_PERICENTER":264.9735,"MEAN_ANOMALY":349.2518,"EPHEMERIS_TYPE":0,"CLASSIFICATION_TYPE":"U","NORAD_CAT_ID":67828,"ELEMENT_SET_NO":999,"REV_AT_EPOCH":555,"BSTAR":-0.022477803,"MEAN_MOTION_DOT":-0.01947914,"MEAN_MOTION_DDOT":0},{"OBJECT_NAME":"STARLINK-36144","OBJECT_ID":"2026-033J","EPOCH":"2026-03-15T06:00:00.999648","MEAN_MOTION":15.63166875,"ECCENTRICITY":0.00015314,"INCLINATION":42.9998,"RA_OF_ASC_NODE":237.7442,"ARG_OF_PERICENTER":261.1208,"MEAN_ANOMALY":339.7512,"EPHEMERIS_TYPE":0,"CLASSIFICATION_TYPE":"U","NORAD_CAT_ID":67829,"ELEMENT_SET_NO":999,"REV_AT_EPOCH":555,"BSTAR":-0.023486165,"MEAN_MOTION_DOT":-0.01946498,"MEAN_MOTION_DDOT":0},{"OBJECT_NAME":"STARLINK-36611","OBJECT_ID":"2026-033K","EPOCH":"2026-03-15T06:00:00.999648","MEAN_MOTION":15.65329791,"ECCENTRICITY":0.00017752,"INCLINATION":42.9998,"RA_OF_ASC_NODE":237.6506,"ARG_OF_PERICENTER":263.5613,"MEAN_ANOMALY":14.7024,"EPHEMERIS_TYPE":0,"CLASSIFICATION_TYPE":"U","NORAD_CAT_ID":67830,"ELEMENT_SET_NO":999,"REV_AT_EPOCH":555,"BSTAR":-0.021518839,"MEAN_MOTION_DOT":-0.01945403,"MEAN_MOTION_DDOT":0},{"OBJECT_NAME":"STARLINK-36661","OBJECT_ID":"2026-033L","EPOCH":"2026-03-15T06:00:00.999648","MEAN_MOTION":15.59790379,"ECCENTRICITY":0.00013916,"INCLINATION":42.9994,"RA_OF_ASC_NODE":237.8704,"ARG_OF_PERICENTER":271.2811,"MEAN_ANOMALY":278.7633,"EPHEMERIS_TYPE":0,"CLASSIFICATION_TYPE":"U","NORAD_CAT_ID":67831,"ELEMENT_SET_NO":999,"REV_AT_EPOCH":555,"BSTAR":-0.026093931,"MEAN_MOTION_DOT":-0.01900571,"MEAN_MOTION_DDOT":0},{"OBJECT_NAME":"STARLINK-36662","OBJECT_ID":"2026-033M","EPOCH":"2026-03-15T06:00:00.999648","MEAN_MOTION":15.84618172,"ECCENTRICITY":0.00021754,"INCLINATION":42.9985,"RA_OF_ASC_NODE":236.3249,"ARG_OF_PERICENTER":264.1194,"MEAN_ANOMALY":180.8579,"EPHEMERIS_TYPE":0,"CLASSIFICATION_TYPE":"U","NORAD_CAT_ID":67832,"ELEMENT_SET_NO":999,"REV_AT_EPOCH":555,"BSTAR":-0.0029120199,"MEAN_MOTION_DOT":-0.00645584,"MEAN_MOTION_DDOT":0},{"OBJECT_NAME":"STARLINK-36659","OBJECT_ID":"2026-033N","EPOCH":"2026-03-12T20:13:40.622592","MEAN_MOTION":15.81357226,"ECCENTRICITY":0.00018161,"INCLINATION":42.997,"RA_OF_ASC_NODE":252.0859,"ARG_OF_PERICENTER":307.9497,"MEAN_ANOMALY":52.121,"EPHEMERIS_TYPE":0,"CLASSIFICATION_TYPE":"U","NORAD_CAT_ID":67833,"ELEMENT_SET_NO":999,"REV_AT_EPOCH":512,"BSTAR":-0.0025045565,"MEAN_MOTION_DOT":-0.00484356,"MEAN_MOTION_DDOT":0},{"OBJECT_NAME":"STARLINK-36655","OBJECT_ID":"2026-033P","EPOCH":"2026-03-15T06:00:00.999648","MEAN_MOTION":15.65340859,"ECCENTRICITY":0.00017729,"INCLINATION":42.9995,"RA_OF_ASC_NODE":237.6187,"ARG_OF_PERICENTER":261.8968,"MEAN_ANOMALY":29.3932,"EPHEMERIS_TYPE":0,"CLASSIFICATION_TYPE":"U","NORAD_CAT_ID":67834,"ELEMENT_SET_NO":999,"REV_AT_EPOCH":555,"BSTAR":-0.021500566,"MEAN_MOTION_DOT":-0.01944713,"MEAN_MOTION_DDOT":0},{"OBJECT_NAME":"STARLINK-36657","OBJECT_ID":"2026-033Q","EPOCH":"2026-03-15T06:00:00.999648","MEAN_MOTION":15.6944215,"ECCENTRICITY":0.00019722,"INCLINATION":42.9994,"RA_OF_ASC_NODE":237.4782,"ARG_OF_PERICENTER":267.916,"MEAN_ANOMALY":79.362,"EPHEMERIS_TYPE":0,"CLASSIFICATION_TYPE":"U","NORAD_CAT_ID":67835,"ELEMENT_SET_NO":999,"REV_AT_EPOCH":555,"BSTAR":-0.018160347,"MEAN_MOTION_DOT":-0.01945111,"MEAN_MOTION_DDOT":0},{"OBJECT_NAME":"STARLINK-36650","OBJECT_ID":"2026-033R","EPOCH":"2026-03-15T06:00:00.999648","MEAN_MOTION":15.60996628,"ECCENTRICITY":0.00015373,"INCLINATION":42.9992,"RA_OF_ASC_NODE":237.7717,"ARG_OF_PERICENTER":266.5657,"MEAN_ANOMALY":322.8056,"EPHEMERIS_TYPE":0,"CLASSIFICATION_TYPE":"U","NORAD_CAT_ID":67836,"ELEMENT_SET_NO":999,"REV_AT_EPOCH":555,"BSTAR":-0.025246497,"MEAN_MOTION_DOT":-0.01924002,"MEAN_MOTION_DDOT":0},{"OBJECT_NAME":"STARLINK-36649","OBJECT_ID":"2026-033S","EPOCH":"2026-03-15T06:00:00.999648","MEAN_MOTION":15.64917304,"ECCENTRICITY":0.00017618,"INCLINATION":42.9997,"RA_OF_ASC_NODE":237.601,"ARG_OF_PERICENTER":265.7194,"MEAN_ANOMALY":32.1931,"EPHEMERIS_TYPE":0,"CLASSIFICATION_TYPE":"U","NORAD_CAT_ID":67837,"ELEMENT_SET_NO":999,"REV_AT_EPOCH":555,"BSTAR":-0.021891751,"MEAN_MOTION_DOT":-0.0194628,"MEAN_MOTION_DDOT":0},{"OBJECT_NAME":"STARLINK-36654","OBJECT_ID":"2026-033T","EPOCH":"2026-03-15T06:00:00.999648","MEAN_MOTION":15.62908879,"ECCENTRICITY":0.00016846,"INCLINATION":42.9995,"RA_OF_ASC_NODE":237.668,"ARG_OF_PERICENTER":263.9168,"MEAN_ANOMALY":6.8701,"EPHEMERIS_TYPE":0,"CLASSIFICATION_TYPE":"U","NORAD_CAT_ID":67838,"ELEMENT_SET_NO":999,"REV_AT_EPOCH":555,"BSTAR":-0.023715247,"MEAN_MOTION_DOT":-0.01945694,"MEAN_MOTION_DDOT":0},{"OBJECT_NAME":"STARLINK-36652","OBJECT_ID":"2026-033U","EPOCH":"2026-03-15T06:00:00.999648","MEAN_MOTION":15.61182434,"ECCENTRICITY":0.0001349,"INCLINATION":42.9995,"RA_OF_ASC_NODE":237.7313,"ARG_OF_PERICENTER":261.5312,"MEAN_ANOMALY":344.1863,"EPHEMERIS_TYPE":0,"CLASSIFICATION_TYPE":"U","NORAD_CAT_ID":67839,"ELEMENT_SET_NO":999,"REV_AT_EPOCH":555,"BSTAR":-0.024806906,"MEAN_MOTION_DOT":-0.0190645,"MEAN_MOTION_DDOT":0},{"OBJECT_NAME":"STARLINK-36651","OBJECT_ID":"2026-033V","EPOCH":"2026-03-15T06:00:00.999648","MEAN_MOTION":15.62725893,"ECCENTRICITY":0.00017287,"INCLINATION":42.9994,"RA_OF_ASC_NODE":237.6537,"ARG_OF_PERICENTER":265.8526,"MEAN_ANOMALY":10.5297,"EPHEMERIS_TYPE":0,"CLASSIFICATION_TYPE":"U","NORAD_CAT_ID":67840,"ELEMENT_SET_NO":999,"REV_AT_EPOCH":555,"BSTAR":-0.023804293,"MEAN_MOTION_DOT":-0.0193973,"MEAN_MOTION_DDOT":0},{"OBJECT_NAME":"STARLINK-36656","OBJECT_ID":"2026-033W","EPOCH":"2026-03-15T06:00:00.999648","MEAN_MOTION":15.63828943,"ECCENTRICITY":0.00017355,"INCLINATION":42.9994,"RA_OF_ASC_NODE":237.5993,"ARG_OF_PERICENTER":264.5482,"MEAN_ANOMALY":33.8758,"EPHEMERIS_TYPE":0,"CLASSIFICATION_TYPE":"U","NORAD_CAT_ID":67841,"ELEMENT_SET_NO":999,"REV_AT_EPOCH":555,"BSTAR":-0.022872128,"MEAN_MOTION_DOT":-0.01946462,"MEAN_MOTION_DDOT":0},{"OBJECT_NAME":"STARLINK-36653","OBJECT_ID":"2026-033X","EPOCH":"2026-03-15T06:00:00.999648","MEAN_MOTION":15.62804764,"ECCENTRICITY":0.00016252,"INCLINATION":42.9996,"RA_OF_ASC_NODE":237.6285,"ARG_OF_PERICENTER":263.5572,"MEAN_ANOMALY":22.9272,"EPHEMERIS_TYPE":0,"CLASSIFICATION_TYPE":"U","NORAD_CAT_ID":67842,"ELEMENT_SET_NO":999,"REV_AT_EPOCH":555,"BSTAR":-0.023550642,"MEAN_MOTION_DOT":-0.01926715,"MEAN_MOTION_DDOT":0},{"OBJECT_NAME":"STARLINK-36589","OBJECT_ID":"2026-033Y","EPOCH":"2026-03-15T06:00:00.999648","MEAN_MOTION":15.63866968,"ECCENTRICITY":0.00017105,"INCLINATION":42.9992,"RA_OF_ASC_NODE":237.5763,"ARG_OF_PERICENTER":265.2633,"MEAN_ANOMALY":42.3274,"EPHEMERIS_TYPE":0,"CLASSIFICATION_TYPE":"U","NORAD_CAT_ID":67843,"ELEMENT_SET_NO":999,"REV_AT_EPOCH":555,"BSTAR":-0.022789185,"MEAN_MOTION_DOT":-0.01942821,"MEAN_MOTION_DDOT":0}]
